0 COSMOS 2251 DEB
1 33815U 93036BG  13281.55877943  .00002471  00000-0  99370-3 0  9135
2 33815 073.9926 189.2622 0065769 221.1966 202.0835 14.27472785241967
0 COSMOS 2251 DEB
1 33815U 93036BG  13283.18813535  .00003303  00000-0  13242-2 0  9142
2 33815 073.9928 186.3042 0065584 217.7335 295.3551 14.27486619242196
0 COSMOS 2251 DEB
1 33815U 93036BG  13285.48153792  .00002968  00000-0  11911-2 0  9157
2 33815 073.9932 182.1413 0065440 212.9714 201.1598 14.27498257242520
0 COSMOS 2251 DEB
1 33815U 93036BG  13287.80594257  .00003623  00000-0  14511-2 0  9169
2 33815 073.9933 177.9209 0065180 208.0006 266.5356 14.27511842242856
0 COSMOS 2251 DEB
1 33815U 93036BG  13289.83097779  .00004534  00000-0  18127-2 0  9171
2 33815 073.9932 174.2453 0065071 203.7116 233.4907 14.27526026243147
0 COSMOS 2251 DEB
1 33815U 93036BG  13292.08126837  .00003465  00000-0  13878-2 0  9181
2 33815 073.9925 170.1599 0064901 198.9980 278.1277 14.27541940243463
0 COSMOS 2251 DEB
1 33815U 93036BG  13294.12235005  .00004022  00000-0  16091-2 0  9197
2 33815 073.9920 166.4535 0064715 194.6008 327.8324 14.27553247243753
